NETSAT-4                
1 46504U 20068U   23068.90648414  .00013610  00000+0  93570-3 0  9997
2 46504  97.7530  13.9466 0012408 139.1708 221.0455 15.05988401133956
NETSAT-3                
1 46505U 20068V   23068.79792444  .00011924  00000+0  82311-3 0  9995
2 46505  97.7476  13.7046 0010957 146.6763 213.5158 15.05883161133941
NETSAT-1                
1 46506U 20068W   23068.89267949  .00011479  00000+0  79558-3 0  9998
2 46506  97.7498  13.7056 0009250 152.4454 207.7269 15.05758175133958
NETSAT-2                
1 46507U 20068X   23068.89978831  .00013394  00000+0  92359-3 0  9990
2 46507  97.7523  13.7109 0008345 157.8525 202.3070 15.05916759133909
BY70-3                  
1 46839U 20079N   23069.18846501  .00334468  00000+0  21020-2 0  9995
2 46839  97.1574 145.9143 0001832 205.9166 212.0918 15.75784336131440
UVSQ-SAT                
1 47438U 21006AB  23068.87328879  .00029911  00000+0  13500-2 0  9998
2 47438  97.3983 127.5763 0011665  75.6622 284.5907 15.20880193117534
SOMP2B                  
1 47445U 21006AJ  23068.88353006  .00029331  00000+0  13474-2 0  9993
2 47445  97.3959 126.9801 0011619  79.8236 280.4310 15.20277854117512
DIY-1 (ARDUIQUBE)       
1 47963U 21022AH  23069.00981871  .00148954  00000+0  46665-2 0  9999
2 47963  97.5097 334.2927 0007408 305.0821  54.9725 15.32446440107278
CAS-5A                  
1 54684U 22167C   23069.14024921  .00022404  00000+0  13357-2 0  9990
2 54684  97.5442 207.6832 0013875 316.3484 150.0964 15.11095251 13707
